     3.04           N: NAVIGATION DATA  E: GALILEO          RINEX VERSION / TYPE
SimGEN V7.04.00     Spirent             20230108 120000 UTC PGM / RUN BY / DATE
GAL    1.0000D+02  2.8910D-01  1.1320D-02  0.0000D+00 M 01  IONOSPHERIC CORR
GAUT  5.5879354477D-09 0.000000000D+00  43200 2244          TIME SYSTEM CORR
    18                                                      LEAP SECONDS
                                                            END OF HEADER
E01 2023 01 08 12 00 00-5.919177112901D-04-5.542233338929D-12 0.000000000000D+00
     2.000000000000D+00-1.656250000000D+01 3.161917420838D-09 2.825909590539D+00
    -7.543712854385D-07 2.660002792254D-04 7.875263690948D-06 5.440603010178D+03
     4.320000000000D+04-7.450580596924D-09 2.601455709398D+00-1.862645149231D-09
     9.711968289634D-01 1.761250000000D+02 2.837511411568D-01-5.389510209019D-09
    -5.753811097899D-10 2.630000000000D+02 2.244000000000D+03 0.000000000000D+00
     2.500000000000D+01 0.000000000000D+00 2.328306436539D-10 2.626358182796D-10
     4.320000000000D+04 0.000000000000D+00 0.000000000000D+00 0.000000000000D+00
E02 2023 01 08 12 00 00 1.346338183339D-05 2.231104190287D-12 0.000000000000D+00
     2.000000000000D+00-1.612500000000D+01 3.130844697963D-09-4.010746739885D-01
    -7.450580596924D-07 4.883086076006D-04 7.938593626022D-06 5.440618150711D+03
     4.320000000000D+04 1.303851604462D-08 2.601431375473D+00 1.490116119385D-08
     9.712046432746D-01 1.745937500000D+02 3.549801411363D-01-5.365580640828D-09
    -5.678807973718D-10 2.630000000000D+02 2.244000000000D+03 0.000000000000D+00
     2.500000000000D+01 0.000000000000D+00-9.313225746155D-10-1.050543273118D-09
     4.320000000000D+04 0.000000000000D+00 0.000000000000D+00 0.000000000000D+00
E03 2023 01 08 12 00 00-6.378622115335D-04-3.765876499529D-12 0.000000000000D+00
     2.000000000000D+00-8.518750000000D+01 2.714398779890D-09 9.730793576742D-01
    -3.932043910027D-06 2.253504935652D-04 1.263804733753D-05 5.440631900787D+03
     4.320000000000D+04-1.005828380585D-07 5.003929902109D-01 2.607703208923D-08
     9.580362786393D-01 6.678125000000D+01 1.034347981477D+00-5.200216609895D-09
     4.646622121891D-10 2.630000000000D+02 2.244000000000D+03 0.000000000000D+00
     2.500000000000D+01 0.000000000000D+00 2.793967723846D-09 3.151629819354D-09
     4.320000000000D+04 0.000000000000D+00 0.000000000000D+00 0.000000000000D+00
E04 2023 01 08 12 00 00-3.166702640556D-05-8.327560863108D-12 0.000000000000D+00
     2.000000000000D+00-8.321875000000D+01 2.816188734136D-09 7.781362336657D-01
    -3.831461071968D-06 9.731051977724D-05 1.117773354053D-05 5.440626144409D+03
     4.320000000000D+04 2.607703208923D-08 5.004928883634D-01 5.587935447693D-08
     9.580792031673D-01 1.005000000000D+02-2.683294604825D+00-5.264862159784D-09
     4.232319150224D-10 2.630000000000D+02 2.244000000000D+03 0.000000000000D+00
     2.500000000000D+01 0.000000000000D+00-2.793967723846D-09-3.151629819354D-09
     4.320000000000D+04 0.000000000000D+00 0.000000000000D+00 0.000000000000D+00
E05 2023 01 08 12 00 00-1.071954320651D-04 3.637978807092D-12 0.000000000000D+00
     2.000000000000D+00-7.115625000000D+01 2.901192274875D-09 2.819387762056D-01
    -3.378838300705D-06 8.328328840435D-05 1.161918044090D-05 5.440624168396D+03
     4.320000000000D+04 5.029141902924D-08 5.003947526214D-01-6.705522537231D-08
     9.580532782960D-01 9.087500000000D+01 2.519844678400D+00-5.278076995950D-09
     3.700154126271D-10 2.630000000000D+02 2.244000000000D+03 0.000000000000D+00
     2.500000000000D+01 0.000000000000D+00 3.958120942116D-09 4.464808910752D-09
     4.320000000000D+04 0.000000000000D+00 0.000000000000D+00 0.000000000000D+00
E07 2023 01 08 12 00 00-1.355242670798D-05-2.984279490192D-12 0.000000000000D+00
     2.000000000000D+00-9.993750000000D+01 2.850475876619D-09 6.322252449427D-01
    -4.569068551064D-06 6.773904897273D-05 1.245178282261D-05 5.440616287231D+03
     4.320000000000D+04 0.000000000000D+00 5.004444555575D-01 2.235174179077D-08
     9.580800600858D-01 7.059375000000D+01-1.904735709259D-01-5.279148469152D-09
     4.600191616446D-10 2.630000000000D+02 2.244000000000D+03 0.000000000000D+00
     2.500000000000D+01 0.000000000000D+00 5.820766091347D-09 6.565895456988D-09
     4.320000000000D+04 0.000000000000D+00 0.000000000000D+00 0.000000000000D+00
E08 2023 01 08 12 00 00-1.605150930572D-05-6.181721801113D-12 0.000000000000D+00
     2.000000000000D+00-9.246875000000D+01 2.665111012571D-09 4.153150104602D-01
    -4.282221198082D-06 1.564664999023D-04 1.270510256290D-05 5.440617366791D+03
     4.320000000000D+04-9.313225746155D-09 4.981393754701D-01 6.519258022308D-08
     9.639632804770D-01 6.900000000000D+01 8.247989550443D-01-5.183073038654D-09
     4.893060958486D-10 2.630000000000D+02 2.244000000000D+03 0.000000000000D+00
     2.500000000000D+01 0.000000000000D+00-3.492459654808D-09-3.939537274193D-09
     4.320000000000D+04 0.000000000000D+00 0.000000000000D+00 0.000000000000D+00
E09 2023 01 08 12 00 00-7.927002843644D-04-1.352873368887D-11 0.000000000000D+00
     2.000000000000D+00-7.640625000000D+01 2.778330014311D-09-3.066728576633D+00
    -3.546476364136D-06 1.653386279941D-04 1.127459108829D-05 5.440614549637D+03
     4.320000000000D+04 3.911554813385D-08 4.981723422262D-01-3.725290298462D-09
     9.639953558302D-01 1.001250000000D+02 3.749392313468D-01-5.272005314468D-09
     4.028739241732D-10 2.630000000000D+02 2.244000000000D+03 0.000000000000D+00
     2.500000000000D+01 0.000000000000D+00 2.328306436539D-09 2.626358182796D-09
     4.320000000000D+04 0.000000000000D+00 0.000000000000D+00 0.000000000000D+00
E10 2023 01 08 12 00 00-5.035885100142D-04-2.742694960034D-12 0.000000000000D+00
     2.000000000000D+00 9.675000000000D+01 2.736542559410D-09 2.721088245911D+00
     4.526227712631D-06 7.832283154130D-05-3.725290298462D-08 5.440604570389D+03
     4.320000000000D+04-4.097819328308D-08-1.600077495273D+00 3.166496753693D-08
     9.984923409625D-01 3.596875000000D+02-2.901874062177D+00-5.668807557160D-09
     1.728643433509D-10 2.630000000000D+02 2.244000000000D+03 0.000000000000D+00
     2.500000000000D+01 0.000000000000D+00 6.984919309616D-10 7.879074548385D-10
     4.320000000000D+04 0.000000000000D+00 0.000000000000D+00 0.000000000000D+00
E11 2023 01 08 12 00 00 3.687586226100D-04 1.673896576904D-10-3.469446951954D-18
     2.000000000000D+00 9.215625000000D+01 2.806188317579D-09-7.925829932934D-01
     4.360452294350D-06 2.582393353805D-04-1.303851604462D-07 5.440604492188D+03
     4.320000000000D+04 2.793967723846D-08-1.596082778694D+00 6.146728992462D-08
     9.954913903265D-01 3.601250000000D+02 1.801551240240D-01-5.737024684392D-09
     1.514348792991D-10 2.630000000000D+02 2.244000000000D+03 0.000000000000D+00
     2.500000000000D+01 0.000000000000D+00-1.303851604462D-08-1.470760582366D-08
     4.320000000000D+04 0.000000000000D+00 0.000000000000D+00 0.000000000000D+00
E12 2023 01 08 12 00 00-3.766589393308D-04-1.357136625302D-11 0.000000000000D+00
     2.000000000000D+00 9.762500000000D+01 2.779044329780D-09 6.534339457988D-01
     4.537403583527D-06 3.509486559778D-04-3.725290298462D-08 5.440608392715D+03
     4.320000000000D+04-3.166496753693D-08-1.596088742440D+00 1.676380634308D-08
     9.955043093560D-01 3.580937500000D+02-4.487399111099D-01-5.687736917073D-09
     1.514348792991D-10 2.630000000000D+02 2.244000000000D+03 0.000000000000D+00
     2.500000000000D+01 0.000000000000D+00-1.024454832077D-08-1.155597600430D-08
     4.320000000000D+04 0.000000000000D+00 0.000000000000D+00 0.000000000000D+00
E13 2023 01 08 12 00 00 4.300483042243D-04-1.421085471520D-13 0.000000000000D+00
     2.000000000000D+00 1.165625000000D+02 2.840475460061D-09-2.504484973476D+00
     5.425885319710D-06 3.172722645104D-04-8.102506399155D-07 5.440606861115D+03
     4.320000000000D+04 1.490116119385D-08-1.598244823484D+00 9.313225746155D-09
     9.986133624835D-01 3.747812500000D+02-1.212799190686D+00-5.789526871319D-09
     2.132231673151D-10 2.630000000000D+02 2.244000000000D+03 0.000000000000D+00
     2.500000000000D+01 0.000000000000D+00 2.328306436539D-10 2.626358182796D-10
     4.320000000000D+04 0.000000000000D+00 0.000000000000D+00 0.000000000000D+00
E14 2023 01 08 12 00 00 1.075584268619D-04 1.080024958355D-11 0.000000000000D+00
     2.000000000000D+00 1.840625000000D+01 6.442411209429D-09 4.094244515625D-01
     3.725290298462D-08 1.616251815576D-01 7.608905434608D-06 5.289332092285D+03
     4.320000000000D+04 7.171183824539D-07-2.514254353688D+00-3.004446625710D-06
     8.756297080892D-01 1.935625000000D+02 2.308658557399D+00-1.028757137578D-08
     2.625109346341D-10 2.630000000000D+02 2.244000000000D+03 0.000000000000D+00
     2.500000000000D+01 0.000000000000D+00-3.259629011154D-09-3.676901455913D-09
     4.320000000000D+04 0.000000000000D+00 0.000000000000D+00 0.000000000000D+00
E15 2023 01 08 12 00 00 6.955510521038D-04-2.515321284591D-12 0.000000000000D+00
     2.000000000000D+00 1.109375000000D+02 2.764758020412D-09-1.612610417402D+00
     5.116686224937D-06 3.691689344123D-04-1.000240445137D-06 5.440606000900D+03
     4.320000000000D+04-2.048909664154D-08-1.598300817759D+00-2.980232238770D-08
     9.985721115309D-01 3.792812500000D+02-1.310984333200D+00-5.750596678291D-09
     1.975082270104D-10 2.630000000000D+02 2.244000000000D+03 0.000000000000D+00
     2.500000000000D+01 0.000000000000D+00 5.587935447693D-09 6.303259638709D-09
     4.320000000000D+04 0.000000000000D+00 0.000000000000D+00 0.000000000000D+00
